*******************************************************************************
Ephemeris / WWW_USER Mon Mar 24 07:47:02 2025 Pasadena, USA      / Horizons    
*******************************************************************************
Target body name: (2018 TB)                       {source: JPL#26}
Center body name: Earth (399)                     {source: DE441}
Center-site name: Mauna Kea
*******************************************************************************
Start time      : A.D. 2019-Jan-05 04:06:00.0000 UT      
Stop  time      : A.D. 2019-Jan-05 16:47:00.0000 UT      
Step-size       : 1 minutes
*******************************************************************************
Target pole/equ : undefined
Target radii    : undefined                                                    
Center geodetic : 204.5278, 19.8260847, 4.21024   {E-lon(deg),Lat(deg),Alt(km)}
Center cylindric: 204.5278, 6006.35451, 2151.0229 {E-lon(deg),Dxy(km),Dz(km)}
Center pole/equ : ITRF93                          {East-longitude positive}
Center radii    : 6378.137, 6378.137, 6356.752 km {Equator_a, b, pole_c}       
Target primary  : Sun
Vis. interferer : MOON (R_eq= 1737.400) km        {source: DE441}
Rel. light bend : Sun                             {source: DE441}
Rel. lght bnd GM: 1.3271E+11 km^3/s^2                                          
Small-body perts: Yes                             {source: SB441-N16}
Atmos refraction: NO (AIRLESS)
RA format       : HMS
Time format     : CAL 
Calendar mode   : Mixed Julian/Gregorian
RTS-only print  : NO       
EOP file        : eop.250321.p250617                                           
EOP coverage    : DATA-BASED 1962-JAN-20 TO 2025-MAR-21. PREDICTS-> 2025-JUN-16
Units conversion: 1 au= 149597870.700 km, c= 299792.458 km/s, 1 day= 86400.0 s 
Table cut-offs 1: Elevation (-90.0deg=NO ),Airmass (>38.000=NO), Daylight (YES)
Table cut-offs 2: Solar elongation (  0.0,180.0=NO ),Local Hour Angle( 0.0=NO )
Table cut-offs 3: RA/DEC angular rate (     0.0=NO )                           
*******************************************************************************
Initial IAU76/J2000 heliocentric ecliptic osculating elements (au, days, deg.):
  EPOCH=  2458410.5 ! 2018-Oct-19.00 (TDB)         Residual RMS= .12604        
   EC= .5817616216321111   QR= 1.001672821897195   TP= 2458383.1822299529      
   OM= 14.42282174156359   W=  341.1556337077549   IN= 3.61300419916586        
  Equivalent ICRF heliocentric cartesian coordinates (au, au/d):
   X= 9.381709462996228E-01  Y= 4.515017153732180E-01  Z= 2.129237315158303E-01
  VX=-5.799214133182419E-03 VY= 1.778204046057418E-02 VZ= 9.138573561666745E-03
Asteroid physical parameters (km, seconds, rotational period in hours):        
   GM= n.a.                RAD= n.a.               ROTPER= n.a.                
   H= 24.89                G= .150                 B-V= n.a.                   
                           ALBEDO= n.a.            STYP= n.a.                  
*******************************************************************************
 Date__(UT)__HR:MN     R.A._________(ICRF)_________DEC
******************************************************
$$SOE
 2019-Jan-05 04:06 C   03 57 36.890742 +28 11 43.59460
 2019-Jan-05 04:07 C   03 57 36.925325 +28 11 43.50907
 2019-Jan-05 04:08 C   03 57 36.959896 +28 11 43.42348
 2019-Jan-05 04:09 C   03 57 36.994456 +28 11 43.33782
 2019-Jan-05 04:10 C   03 57 37.029004 +28 11 43.25210
 2019-Jan-05 04:11 C   03 57 37.063541 +28 11 43.16631
 2019-Jan-05 04:12 C   03 57 37.098066 +28 11 43.08046
 2019-Jan-05 04:13 C   03 57 37.132580 +28 11 42.99454
 2019-Jan-05 04:14 C   03 57 37.167083 +28 11 42.90855
 2019-Jan-05 04:15 C   03 57 37.201575 +28 11 42.82250
 2019-Jan-05 04:16 C   03 57 37.236055 +28 11 42.73638
 2019-Jan-05 04:17 C   03 57 37.270524 +28 11 42.65019
 2019-Jan-05 04:18 C   03 57 37.304982 +28 11 42.56393
 2019-Jan-05 04:19 C   03 57 37.339429 +28 11 42.47760
 2019-Jan-05 04:20 C   03 57 37.373865 +28 11 42.39121
 2019-Jan-05 04:21 N   03 57 37.408290 +28 11 42.30475
 2019-Jan-05 04:22 N   03 57 37.442705 +28 11 42.21822
 2019-Jan-05 04:23 N   03 57 37.477108 +28 11 42.13161
 2019-Jan-05 04:24 N   03 57 37.511501 +28 11 42.04494
 2019-Jan-05 04:25 N   03 57 37.545882 +28 11 41.95820
 2019-Jan-05 04:26 N   03 57 37.580254 +28 11 41.87139
 2019-Jan-05 04:27 N   03 57 37.614614 +28 11 41.78450
 2019-Jan-05 04:28 N   03 57 37.648964 +28 11 41.69755
 2019-Jan-05 04:29 N   03 57 37.683303 +28 11 41.61052
 2019-Jan-05 04:30 N   03 57 37.717632 +28 11 41.52343
 2019-Jan-05 04:31 N   03 57 37.751950 +28 11 41.43626
 2019-Jan-05 04:32 N   03 57 37.786259 +28 11 41.34901
 2019-Jan-05 04:33 N   03 57 37.820556 +28 11 41.26170
 2019-Jan-05 04:34 N   03 57 37.854844 +28 11 41.17431
 2019-Jan-05 04:35 N   03 57 37.889121 +28 11 41.08685
 2019-Jan-05 04:36 N   03 57 37.923388 +28 11 40.99932
 2019-Jan-05 04:37 N   03 57 37.957645 +28 11 40.91171
 2019-Jan-05 04:38 N   03 57 37.991892 +28 11 40.82403
 2019-Jan-05 04:39 N   03 57 38.026129 +28 11 40.73627
 2019-Jan-05 04:40 N   03 57 38.060355 +28 11 40.64844
 2019-Jan-05 04:41 N   03 57 38.094572 +28 11 40.56053
 2019-Jan-05 04:42 N   03 57 38.128780 +28 11 40.47255
 2019-Jan-05 04:43 N   03 57 38.162977 +28 11 40.38449
 2019-Jan-05 04:44 N   03 57 38.197165 +28 11 40.29636
 2019-Jan-05 04:45 N   03 57 38.231342 +28 11 40.20815
 2019-Jan-05 04:46 N   03 57 38.265511 +28 11 40.11986
 2019-Jan-05 04:47 N   03 57 38.299670 +28 11 40.03150
 2019-Jan-05 04:48 A   03 57 38.333819 +28 11 39.94306
 2019-Jan-05 04:49 A   03 57 38.367959 +28 11 39.85454
 2019-Jan-05 04:50 A   03 57 38.402089 +28 11 39.76595
 2019-Jan-05 04:51 A   03 57 38.436210 +28 11 39.67728
 2019-Jan-05 04:52 A   03 57 38.470322 +28 11 39.58853
 2019-Jan-05 04:53 A   03 57 38.504424 +28 11 39.49970
 2019-Jan-05 04:54 A   03 57 38.538518 +28 11 39.41079
 2019-Jan-05 04:55 A   03 57 38.572602 +28 11 39.32181
 2019-Jan-05 04:56 A   03 57 38.606677 +28 11 39.23274
 2019-Jan-05 04:57 A   03 57 38.640743 +28 11 39.14360
 2019-Jan-05 04:58 A   03 57 38.674800 +28 11 39.05437
 2019-Jan-05 04:59 A   03 57 38.708849 +28 11 38.96507
 2019-Jan-05 05:00 A   03 57 38.742888 +28 11 38.87568
 2019-Jan-05 05:01 A   03 57 38.776919 +28 11 38.78622
 2019-Jan-05 05:02 A   03 57 38.810941 +28 11 38.69667
 2019-Jan-05 05:03 A   03 57 38.844955 +28 11 38.60705
 2019-Jan-05 05:04 A   03 57 38.878959 +28 11 38.51734
 2019-Jan-05 05:05 A   03 57 38.912956 +28 11 38.42755
 2019-Jan-05 05:06 A   03 57 38.946943 +28 11 38.33768
 2019-Jan-05 05:07 A   03 57 38.980923 +28 11 38.24773
 2019-Jan-05 05:08 A   03 57 39.014894 +28 11 38.15770
 2019-Jan-05 05:09 A   03 57 39.048856 +28 11 38.06758
 2019-Jan-05 05:10 A   03 57 39.082811 +28 11 37.97738
 2019-Jan-05 05:11 A   03 57 39.116757 +28 11 37.88710
 2019-Jan-05 05:12 A   03 57 39.150695 +28 11 37.79673
 2019-Jan-05 05:13 A   03 57 39.184626 +28 11 37.70628
 2019-Jan-05 05:14 A   03 57 39.218548 +28 11 37.61575
 2019-Jan-05 05:15     03 57 39.252462 +28 11 37.52513
 2019-Jan-05 05:16     03 57 39.286368 +28 11 37.43443
 2019-Jan-05 05:17     03 57 39.320267 +28 11 37.34365
 2019-Jan-05 05:18     03 57 39.354158 +28 11 37.25278
 2019-Jan-05 05:19     03 57 39.388041 +28 11 37.16182
 2019-Jan-05 05:20     03 57 39.421916 +28 11 37.07078
 2019-Jan-05 05:21     03 57 39.455784 +28 11 36.97966
 2019-Jan-05 05:22     03 57 39.489644 +28 11 36.88845
 2019-Jan-05 05:23     03 57 39.523497 +28 11 36.79715
 2019-Jan-05 05:24     03 57 39.557343 +28 11 36.70577
 2019-Jan-05 05:25     03 57 39.591181 +28 11 36.61430
 2019-Jan-05 05:26     03 57 39.625012 +28 11 36.52275
 2019-Jan-05 05:27     03 57 39.658836 +28 11 36.43111
 2019-Jan-05 05:28     03 57 39.692653 +28 11 36.33938
 2019-Jan-05 05:29     03 57 39.726462 +28 11 36.24757
 2019-Jan-05 05:30     03 57 39.760265 +28 11 36.15567
 2019-Jan-05 05:31     03 57 39.794060 +28 11 36.06368
 2019-Jan-05 05:32     03 57 39.827849 +28 11 35.97160
 2019-Jan-05 05:33     03 57 39.861631 +28 11 35.87944
 2019-Jan-05 05:34     03 57 39.895406 +28 11 35.78719
 2019-Jan-05 05:35     03 57 39.929175 +28 11 35.69485
 2019-Jan-05 05:36     03 57 39.962937 +28 11 35.60242
 2019-Jan-05 05:37     03 57 39.996692 +28 11 35.50990
 2019-Jan-05 05:38     03 57 40.030441 +28 11 35.41729
 2019-Jan-05 05:39     03 57 40.064183 +28 11 35.32460
 2019-Jan-05 05:40     03 57 40.097919 +28 11 35.23182
 2019-Jan-05 05:41     03 57 40.131649 +28 11 35.13894
 2019-Jan-05 05:42     03 57 40.165372 +28 11 35.04598
 2019-Jan-05 05:43     03 57 40.199090 +28 11 34.95293
 2019-Jan-05 05:44     03 57 40.232801 +28 11 34.85979
 2019-Jan-05 05:45     03 57 40.266506 +28 11 34.76655
 2019-Jan-05 05:46     03 57 40.300205 +28 11 34.67323
 2019-Jan-05 05:47     03 57 40.333899 +28 11 34.57982
 2019-Jan-05 05:48     03 57 40.367586 +28 11 34.48631
 2019-Jan-05 05:49     03 57 40.401268 +28 11 34.39272
 2019-Jan-05 05:50     03 57 40.434944 +28 11 34.29903
 2019-Jan-05 05:51     03 57 40.468614 +28 11 34.20526
 2019-Jan-05 05:52     03 57 40.502279 +28 11 34.11139
 2019-Jan-05 05:53     03 57 40.535938 +28 11 34.01743
 2019-Jan-05 05:54     03 57 40.569592 +28 11 33.92338
 2019-Jan-05 05:55     03 57 40.603240 +28 11 33.82924
 2019-Jan-05 05:56     03 57 40.636883 +28 11 33.73500
 2019-Jan-05 05:57     03 57 40.670521 +28 11 33.64068
 2019-Jan-05 05:58     03 57 40.704153 +28 11 33.54626
 2019-Jan-05 05:59     03 57 40.737781 +28 11 33.45175
 2019-Jan-05 06:00     03 57 40.771403 +28 11 33.35714
 2019-Jan-05 06:01     03 57 40.805021 +28 11 33.26245
 2019-Jan-05 06:02     03 57 40.838633 +28 11 33.16766
 2019-Jan-05 06:03     03 57 40.872241 +28 11 33.07277
 2019-Jan-05 06:04     03 57 40.905844 +28 11 32.97780
 2019-Jan-05 06:05     03 57 40.939442 +28 11 32.88273
 2019-Jan-05 06:06     03 57 40.973035 +28 11 32.78757
 2019-Jan-05 06:07     03 57 41.006624 +28 11 32.69231
 2019-Jan-05 06:08     03 57 41.040209 +28 11 32.59696
